HIMAWARI-8              
1 40267U 14060A   24172.90444365 -.00000255  00000+0  00000+0 0  9992
2 40267   0.0539 133.2860 0000845 335.0221 267.5616  1.00271052 35586
